{
  "links" : {
    "next" : "https://api.nasa.gov/neo/rest/v1/feed?start_date=1996-03-23&end_date=1996-03-23&detailed=true&api_key=t0TVs3DtDT2H8Oy2Zy8m2eVrNsAVKAexjcZXUckd",
    "prev" : "https://api.nasa.gov/neo/rest/v1/feed?start_date=1996-03-21&end_date=1996-03-21&detailed=true&api_key=t0TVs3DtDT2H8Oy2Zy8m2eVrNsAVKAexjcZXUckd",
    "self" : "https://api.nasa.gov/neo/rest/v1/feed?start_date=1996-03-22&end_date=1996-03-22&detailed=true&api_key=t0TVs3DtDT2H8Oy2Zy8m2eVrNsAVKAexjcZXUckd"
  },
  "element_count" : 1,
  "near_earth_objects" : {
    "1996-03-22" : [ {
      "links" : {
        "self" : "https://api.nasa.gov/neo/rest/v1/neo/3613391?api_key=t0TVs3DtDT2H8Oy2Zy8m2eVrNsAVKAexjcZXUckd"
      },
      "neo_reference_id" : "3613391",
      "name" : "(2012 UW68)",
      "nasa_jpl_url" : "http://ssd.jpl.nasa.gov/sbdb.cgi?sstr=3613391",
      "absolute_magnitude_h" : 24.8,
      "estimated_diameter" : {
        "kilometers" : {
          "estimated_diameter_min" : 0.0291443905,
          "estimated_diameter_max" : 0.0651688382
        },
        "meters" : {
          "estimated_diameter_min" : 29.1443904535,
          "estimated_diameter_max" : 65.1688382168
        },
        "miles" : {
          "estimated_diameter_min" : 0.018109479,
          "estimated_diameter_max" : 0.0404940262
        },
        "feet" : {
          "estimated_diameter_min" : 95.6180819754,
          "estimated_diameter_max" : 213.8085311752
        }
      },
      "is_potentially_hazardous_asteroid" : false,
      "close_approach_data" : [ {
        "close_approach_date" : "1996-03-22",
        "epoch_date_close_approach" : 827481600000,
        "relative_velocity" : {
          "kilometers_per_second" : "8.9744514162",
          "kilometers_per_hour" : "32308.0250982348",
          "miles_per_hour" : "20074.9503728448"
        },
        "miss_distance" : {
          "astronomical" : "0.1950647838",
          "lunar" : "75.8802032471",
          "kilometers" : "29181276",
          "miles" : "18132404"
        },
        "orbiting_body" : "Earth"
      } ],
      "orbital_data" : {
        "orbit_id" : "16",
        "orbit_determination_date" : "2017-04-06 08:48:22",
        "orbit_uncertainty" : "4",
        "minimum_orbit_intersection" : ".0248379",
        "jupiter_tisserand_invariant" : "5.503",
        "epoch_osculation" : "2458000.5",
        "eccentricity" : ".1551877075385778",
        "semi_major_axis" : "1.135946759642179",
        "inclination" : "2.4723345834316",
        "ascending_node_longitude" : "15.39358391881324",
        "orbital_period" : "442.2169576560004",
        "perihelion_distance" : ".959661786127433",
        "perihelion_argument" : "102.3995267673413",
        "aphelion_distance" : "1.312231733156924",
        "perihelion_time" : "2458078.910776980292",
        "mean_anomaly" : "296.1673512871855",
        "mean_motion" : ".8140800432172555",
        "equinox" : "J2000"
      }
    } ]
  }
}